{
  "type": "FeatureCollection",
  "features": [
    {
      "type": "Feature",
      "properties": {
        "norad_id": 66885,
        "name": "STARLINK-35954",
        "group": "last-30-days",
        "lat": -30.810148994239203,
        "lon": 17.056895691107687,
        "alt_km": 339.0384280084272,
        "timestamp": "2025-12-18T17:50:13.701322+00:00",
        "meta_object_name": "STARLINK-35954",
        "meta_object_id": "2025-283H",
        "meta_epoch": "2025-12-18T06:00:02.999808",
        "meta_mean_motion": 15.79971347,
        "meta_eccentricity": 9.319e-05,
        "meta_inclination": 53.1551,
        "meta_ra_of_asc_node": 46.0871,
        "meta_arg_of_pericenter": 82.3323,
        "meta_mean_anomaly": 312.5102,
        "meta_ephemeris_type": 0,
        "meta_classification_type": "U",
        "meta_norad_cat_id": 66885,
        "meta_element_set_no": 999,
        "meta_rev_at_epoch": 331,
        "meta_bstar": -0.0083109899,
        "meta_mean_motion_dot": -0.01400289,
        "meta_mean_motion_ddot": 0,
        "tle_line1": "1 66885U 25283H   25352.25003472 -.01400289  00000+0 -83110-2 0  9993",
        "tle_line2": "2 66885  53.1551  46.0871 0000931  82.3323 312.5102 15.79971347  3319"
      },
      "geometry": {
        "type": "Point",
        "coordinates": [
          17.056895691107687,
          -30.810148994239203
        ]
      }
    },
    {
      "type": "Feature",
      "properties": {
        "norad_id": 66886,
        "name": "STARLINK-35900",
        "group": "last-30-days",
        "lat": -27.296001970185422,
        "lon": 20.844282506939265,
        "alt_km": 339.2713171945179,
        "timestamp": "2025-12-18T17:50:13.701337+00:00",
        "meta_object_name": "STARLINK-35900",
        "meta_object_id": "2025-283J",
        "meta_epoch": "2025-12-18T06:00:02.999808",
        "meta_mean_motion": 15.79835766,
        "meta_eccentricity": 0.0001013,
        "meta_inclination": 53.1551,
        "meta_ra_of_asc_node": 46.0764,
        "meta_arg_of_pericenter": 73.1789,
        "meta_mean_anomaly": 326.7644,
        "meta_ephemeris_type": 0,
        "meta_classification_type": "U",
        "meta_norad_cat_id": 66886,
        "meta_element_set_no": 999,
        "meta_rev_at_epoch": 331,
        "meta_bstar": -0.008493312,
        "meta_mean_motion_dot": -0.01419678,
        "meta_mean_motion_ddot": 0,
        "tle_line1": "1 66886U 25283J   25352.25003472 -.01419678  00000+0 -84933-2 0  9990",
        "tle_line2": "2 66886  53.1551  46.0764 0001013  73.1789 326.7644 15.79835766  3319"
      },
      "geometry": {
        "type": "Point",
        "coordinates": [
          20.844282506939265,
          -27.296001970185422
        ]
      }
    },
    {
      "type": "Feature",
      "properties": {
        "norad_id": 66887,
        "name": "STARLINK-35925",
        "group": "last-30-days",
        "lat": -25.63197225699887,
        "lon": 22.518898698974514,
        "alt_km": 339.14660912405907,
        "timestamp": "2025-12-18T17:50:13.701347+00:00",
        "meta_object_name": "STARLINK-35925",
        "meta_object_id": "2025-283K",
        "meta_epoch": "2025-12-18T06:00:02.999808",
        "meta_mean_motion": 15.79792615,
        "meta_eccentricity": 6.349e-05,
        "meta_inclination": 53.1554,
        "meta_ra_of_asc_node": 46.0719,
        "meta_arg_of_pericenter": 87.4211,
        "meta_mean_anomaly": 314.8449,
        "meta_ephemeris_type": 0,
        "meta_classification_type": "U",
        "meta_norad_cat_id": 66887,
        "meta_element_set_no": 999,
        "meta_rev_at_epoch": 331,
        "meta_bstar": -0.0085423992,
        "meta_mean_motion_dot": -0.01424216,
        "meta_mean_motion_ddot": 0,
        "tle_line1": "1 66887U 25283K   25352.25003472 -.01424216  00000+0 -85424-2 0  9991",
        "tle_line2": "2 66887  53.1554  46.0719 0000634  87.4211 314.8449 15.79792615  3315"
      },
      "geometry": {
        "type": "Point",
        "coordinates": [
          22.518898698974514,
          -25.63197225699887
        ]
      }
    },
    {
      "type": "Feature",
      "properties": {
        "norad_id": 66888,
        "name": "STARLINK-35919",
        "group": "last-30-days",
        "lat": -23.960676725179173,
        "lon": 24.13512519707084,
        "alt_km": 339.09519171243574,
        "timestamp": "2025-12-18T17:50:13.701357+00:00",
        "meta_object_name": "STARLINK-35919",
        "meta_object_id": "2025-283L",
        "meta_epoch": "2025-12-18T06:00:02.999808",
        "meta_mean_motion": 15.79752243,
        "meta_eccentricity": 9.284e-05,
        "meta_inclination": 53.1552,
        "meta_ra_of_asc_node": 46.0667,
        "meta_arg_of_pericenter": 74.1516,
        "meta_mean_anomaly": 330.4259,
        "meta_ephemeris_type": 0,
        "meta_classification_type": "U",
        "meta_norad_cat_id": 66888,
        "meta_element_set_no": 999,
        "meta_rev_at_epoch": 331,
        "meta_bstar": -0.0086038398,
        "meta_mean_motion_dot": -0.01431103,
        "meta_mean_motion_ddot": 0,
        "tle_line1": "1 66888U 25283L   25352.25003472 -.01431103  00000+0 -86038-2 0  9997",
        "tle_line2": "2 66888  53.1552  46.0667 0000928  74.1516 330.4259 15.79752243  3319"
      },
      "geometry": {
        "type": "Point",
        "coordinates": [
          24.13512519707084,
          -23.960676725179173
        ]
      }
    },
    {
      "type": "Feature",
      "properties": {
        "norad_id": 66889,
        "name": "STARLINK-35852",
        "group": "last-30-days",
        "lat": -22.15763182042647,
        "lon": 25.814744258424582,
        "alt_km": 339.2055003159576,
        "timestamp": "2025-12-18T17:50:13.701367+00:00",
        "meta_object_name": "STARLINK-35852",
        "meta_object_id": "2025-283M",
        "meta_epoch": "2025-12-18T06:00:02.999808",
        "meta_mean_motion": 15.79688246,
        "meta_eccentricity": 0.00010682,
        "meta_inclination": 53.1545,
        "meta_ra_of_asc_node": 46.061,
        "meta_arg_of_pericenter": 63.3756,
        "meta_mean_anomaly": 343.7083,
        "meta_ephemeris_type": 0,
        "meta_classification_type": "U",
        "meta_norad_cat_id": 66889,
        "meta_element_set_no": 999,
        "meta_rev_at_epoch": 331,
        "meta_bstar": -0.0087035797,
        "meta_mean_motion_dot": -0.01442104,
        "meta_mean_motion_ddot": 0,
        "tle_line1": "1 66889U 25283M   25352.25003472 -.01442104  00000+0 -87036-2 0  9990",
        "tle_line2": "2 66889  53.1545  46.0610 0001068  63.3756 343.7083 15.79688246  3315"
      },
      "geometry": {
        "type": "Point",
        "coordinates": [
          25.814744258424582,
          -22.15763182042647
        ]
      }
    },
    {
      "type": "Feature",
      "properties": {
        "norad_id": 66890,
        "name": "STARLINK-35885",
        "group": "last-30-days",
        "lat": -20.38624091619451,
        "lon": 27.410176808401783,
        "alt_km": 339.301104751863,
        "timestamp": "2025-12-18T17:50:13.701377+00:00",
        "meta_object_name": "STARLINK-35885",
        "meta_object_id": "2025-283N",
        "meta_epoch": "2025-12-18T06:00:02.999808",
        "meta_mean_motion": 15.79630873,
        "meta_eccentricity": 0.0001011,
        "meta_inclination": 53.1549,
        "meta_ra_of_asc_node": 46.0563,
        "meta_arg_of_pericenter": 72.5143,
        "meta_mean_anomaly": 336.9953,
        "meta_ephemeris_type": 0,
        "meta_classification_type": "U",
        "meta_norad_cat_id": 66890,
        "meta_element_set_no": 999,
        "meta_rev_at_epoch": 331,
        "meta_bstar": -0.0087749391,
        "meta_mean_motion_dot": -0.01449134,
        "meta_mean_motion_ddot": 0,
        "tle_line1": "1 66890U 25283N   25352.25003472 -.01449134  00000+0 -87749-2 0  9993",
        "tle_line2": "2 66890  53.1549  46.0563 0001011  72.5143 336.9953 15.79630873  3311"
      },
      "geometry": {
        "type": "Point",
        "coordinates": [
          27.410176808401783,
          -20.38624091619451
        ]
      }
    },
    {
      "type": "Feature",
      "properties": {
        "norad_id": 66891,
        "name": "STARLINK-35855",
        "group": "last-30-days",
        "lat": -18.586014800721912,
        "lon": 28.981249992987085,
        "alt_km": 339.38132405365286,
        "timestamp": "2025-12-18T17:50:13.701387+00:00",
        "meta_object_name": "STARLINK-35855",
        "meta_object_id": "2025-283P",
        "meta_epoch": "2025-12-18T06:00:02.999808",
        "meta_mean_motion": 15.79569716,
        "meta_eccentricity": 0.00012124,
        "meta_inclination": 53.1551,
        "meta_ra_of_asc_node": 46.0513,
        "meta_arg_of_pericenter": 75.9164,
        "meta_mean_anomaly": 336.0502,
        "meta_ephemeris_type": 0,
        "meta_classification_type": "U",
        "meta_norad_cat_id": 66891,
        "meta_element_set_no": 999,
        "meta_rev_at_epoch": 331,
        "meta_bstar": -0.0088660279,
        "meta_mean_motion_dot": -0.01458918,
        "meta_mean_motion_ddot": 0,
        "tle_line1": "1 66891U 25283P   25352.25003472 -.01458918  00000+0 -88660-2 0  9997",
        "tle_line2": "2 66891  53.1551  46.0513 0001212  75.9164 336.0502 15.79569716  3311"
      },
      "geometry": {
        "type": "Point",
        "coordinates": [
          28.981249992987085,
          -18.586014800721912
        ]
      }
    }
  ]
}